[{"OBJECT_NAME":"DONGPO 03","OBJECT_ID":"2022-098G","EPOCH":"2026-03-09T23:33:34.890048","MEAN_MOTION":15.70958192,"ECCENTRICITY":0.00010558,"INCLINATION":97.5452,"RA_OF_ASC_NODE":197.1326,"ARG_OF_PERICENTER":261.4023,"MEAN_ANOMALY":98.7119,"EPHEMERIS_TYPE":0,"CLASSIFICATION_TYPE":"U","NORAD_CAT_ID":53450,"ELEMENT_SET_NO":999,"REV_AT_EPOCH":19946,"BSTAR":0.0010143925,"MEAN_MOTION_DOT":0.00128253,"MEAN_MOTION_DDOT":0},{"OBJECT_NAME":"STARLINK-11293 [DTC]","OBJECT_ID":"2024-175G","EPOCH":"2026-03-09T04:45:59.375232","MEAN_MOTION":15.69703902,"ECCENTRICITY":0.00013703,"INCLINATION":53.1595,"RA_OF_ASC_NODE":58.3709,"ARG_OF_PERICENTER":82.8012,"MEAN_ANOMALY":277.3162,"EPHEMERIS_TYPE":0,"CLASSIFICATION_TYPE":"U","NORAD_CAT_ID":61249,"ELEMENT_SET_NO":999,"REV_AT_EPOCH":8329,"BSTAR":-4.74638e-6,"MEAN_MOTION_DOT":-1.164e-5,"MEAN_MOTION_DDOT":0}]
